{"type": "FeatureCollection", "features": [ {"type": "Feature", "properties": {"norad_id": 32432, "name": "FENGYUN 1C DEB", "group": "fengyun-1c-debris", "lat": 26.45885027238952, "lon": -148.1011645784161, "alt_km": 805.0508438818415, "timestamp": "2025-12-17T17:50:19.537351+00:00", "meta": {"OBJECT_NAME": "FENGYUN 1C DEB", "OBJECT_ID": "1999-025DAU", "EPOCH": "2025-12-16T21:16:56.467488", "MEAN_MOTION": 14.52533242, "ECCENTRICITY": 0.01726185, "INCLINATION": 98.171, "RA_OF_ASC_NODE": 26.9638, "ARG_OF_PERICENTER": 292.8401, "MEAN_ANOMALY": 65.4646, "EPHEMERIS_TYPE": 0, "CLASSIFICATION_TYPE": "U", "NORAD_CAT_ID": 32432, "ELEMENT_SET_NO": 999, "REV_AT_EPOCH": 70755, "BSTAR": 0.0011567718, "MEAN_MOTION_DOT": 5.698e-05, "MEAN_MOTION_DDOT": 0}, "tle": {"line1": "1 32432U 99025DAU 25350.88676467  .00005698  00000+0  11568-2 0  9996", "line2": "2 32432  98.1710  26.9638 0172618 292.8401  65.4646 14.52533242707553"}}, "geometry": {"type": "Point", "coordinates": [-148.1011645784161, 26.45885027238952]}}, {"type": "Feature", "properties": {"norad_id": 32440, "name": "FENGYUN 1C DEB", "group": "fengyun-1c-debris", "lat": -78.41685465462318, "lon": -25.197355312919214, "alt_km": 1275.8206603710669, "timestamp": "2025-12-17T17:50:19.537361+00:00", "meta": {"OBJECT_NAME": "FENGYUN 1C DEB", "OBJECT_ID": "1999-025DBC", "EPOCH": "2025-12-12T07:47:51.906912", "MEAN_MOTION": 13.6125644, "ECCENTRICITY": 0.03219473, "INCLINATION": 99.1542, "RA_OF_ASC_NODE": 201.5922, "ARG_OF_PERICENTER": 91.933, "MEAN_ANOMALY": 271.871, "EPHEMERIS_TYPE": 0, "CLASSIFICATION_TYPE": "U", "NORAD_CAT_ID": 32440, "ELEMENT_SET_NO": 999, "REV_AT_EPOCH": 60280, "BSTAR": 0.0043210943, "MEAN_MOTION_DOT": 4.61e-05, "MEAN_MOTION_DDOT": 0}, "tle": {"line1": "1 32440U 99025DBC 25346.32490633  .00004610  00000+0  43211-2 0  9991", "line2": "2 32440  99.1542 201.5922 0321947  91.9330 271.8710 13.61256440602801"}}, "geometry": {"type": "Point", "coordinates": [-25.197355312919214, -78.41685465462318]}}, {"type": "Feature", "properties": {"norad_id": 32447, "name": "FENGYUN 1C DEB", "group": "fengyun-1c-debris", "lat": 53.37416469709201, "lon": -4.49244712692909, "alt_km": 850.439852324278, "timestamp": "2025-12-17T17:50:19.537372+00:00", "meta": {"OBJECT_NAME": "FENGYUN 1C DEB", "OBJECT_ID": "1999-025DBK", "EPOCH": "2025-12-09T20:22:18.261408", "MEAN_MOTION": 13.96013309, "ECCENTRICITY": 0.00800272, "INCLINATION": 98.9313, "RA_OF_ASC_NODE": 0.0649, "ARG_OF_PERICENTER": 49.1812, "MEAN_ANOMALY": 311.6255, "EPHEMERIS_TYPE": 0, "CLASSIFICATION_TYPE": "U", "NORAD_CAT_ID": 32447, "ELEMENT_SET_NO": 999, "REV_AT_EPOCH": 67838, "BSTAR": 0.00036340481, "MEAN_MOTION_DOT": 4.69e-06, "MEAN_MOTION_DDOT": 0}, "tle": {"line1": "1 32447U 99025DBK 25343.84882247  .00000469  00000+0  36340-3 0  9992", "line2": "2 32447  98.9313   0.0649 0080027  49.1812 311.6255 13.96013309678386"}}, "geometry": {"type": "Point", "coordinates": [-4.49244712692909, 53.37416469709201]}}, {"type": "Feature", "properties": {"norad_id": 32451, "name": "FENGYUN 1C DEB", "group": "fengyun-1c-debris", "lat": -79.91689025885302, "lon": 53.429401641176135, "alt_km": 944.6587415336544, "timestamp": "2025-12-17T17:50:19.537383+00:00", "meta": {"OBJECT_NAME": "FENGYUN 1C DEB", "OBJECT_ID": "1999-025DBP", "EPOCH": "2025-12-15T17:47:04.547904", "MEAN_MOTION": 13.86588617, "ECCENTRICITY": 0.01851329, "INCLINATION": 99.9706, "RA_OF_ASC_NODE": 329.7162, "ARG_OF_PERICENTER": 187.005, "MEAN_ANOMALY": 172.8511, "EPHEMERIS_TYPE": 0, "CLASSIFICATION_TYPE": "U", "NORAD_CAT_ID": 32451, "ELEMENT_SET_NO": 999, "REV_AT_EPOCH": 61806, "BSTAR": 0.001782357, "MEAN_MOTION_DOT": 2.321e-05, "MEAN_MOTION_DDOT": 0}, "tle": {"line1": "1 32451U 99025DBP 25349.74102486  .00002321  00000+0  17824-2 0  9996", "line2": "2 32451  99.9706 329.7162 0185132 187.0050 172.8511 13.86588617618067"}}, "geometry": {"type": "Point", "coordinates": [53.429401641176135, -79.91689025885302]}}, {"type": "Feature", "properties": {"norad_id": 32453, "name": "FENGYUN 1C DEB", "group": "fengyun-1c-debris", "lat": 71.19310605215547, "lon": 110.59911054723477, "alt_km": 873.2437871664761, "timestamp": "2025-12-17T17:50:19.537393+00:00", "meta": {"OBJECT_NAME": "FENGYUN 1C DEB", "OBJECT_ID": "1999-025DBR", "EPOCH": "2025-12-17T00:12:08.739936", "MEAN_MOTION": 14.02261172, "ECCENTRICITY": 0.00962487, "INCLINATION": 99.3722, "RA_OF_ASC_NODE": 260.8349, "ARG_OF_PERICENTER": 194.1493, "MEAN_ANOMALY": 165.6972, "EPHEMERIS_TYPE": 0, "CLASSIFICATION_TYPE": "U", "NORAD_CAT_ID": 32453, "ELEMENT_SET_NO": 999, "REV_AT_EPOCH": 93488, "BSTAR": 0.00047652067, "MEAN_MOTION_DOT": 7.13e-06, "MEAN_MOTION_DDOT": 0}, "tle": {"line1": "1 32453U 99025DBR 25351.00843449  .00000713  00000+0  47652-3 0  9997", "line2": "2 32453  99.3722 260.8349 0096248 194.1493 165.6972 14.02261172934887"}}, "geometry": {"type": "Point", "coordinates": [110.59911054723477, 71.19310605215547]}}, {"type": "Feature", "properties": {"norad_id": 32455, "name": "FENGYUN 1C DEB", "group": "fengyun-1c-debris", "lat": -3.5423883466635195, "lon": -174.0809592220576, "alt_km": 1045.8162010841934, "timestamp": "2025-12-17T17:50:19.537403+00:00", "meta": {"OBJECT_NAME": "FENGYUN 1C DEB", "OBJECT_ID": "1999-025DBT", "EPOCH": "2025-12-15T19:17:51.115776", "MEAN_MOTION": 13.92483124, "ECCENTRICITY": 0.02358922, "INCLINATION": 101.7332, "RA_OF_ASC_NODE": 182.7306, "ARG_OF_PERICENTER": 137.6652, "MEAN_ANOMALY": 224.2971, "EPHEMERIS_TYPE": 0, "CLASSIFICATION_TYPE": "U", "NORAD_CAT_ID": 32455, "ELEMENT_SET_NO": 999, "REV_AT_EPOCH": 64458, "BSTAR": 0.0013497912, "MEAN_MOTION_DOT": 2.12e-05, "MEAN_MOTION_DDOT": 0}, "tle": {"line1": "1 32455U 99025DBT 25349.80406384  .00002120  00000+0  13498-2 0  9991", "line2": "2 32455 101.7332 182.7306 0235892 137.6652 224.2971 13.92483124644585"}}, "geometry": {"type": "Point", "coordinates": [-174.0809592220576, -3.5423883466635195]}}, {"type": "Feature", "properties": {"norad_id": 32456, "name": "FENGYUN 1C DEB", "group": "fengyun-1c-debris", "lat": -63.59571062257594, "lon": 163.13433266282266, "alt_km": 1060.9383524585674, "timestamp": "2025-12-17T17:50:19.537414+00:00", "meta": {"OBJECT_NAME": "FENGYUN 1C DEB", "OBJECT_ID": "1999-025DBU", "EPOCH": "2025-12-17T03:48:04.533120", "MEAN_MOTION": 13.35640436, "ECCENTRICITY": 0.03794971, "INCLINATION": 103.6656, "RA_OF_ASC_NODE": 133.0133, "ARG_OF_PERICENTER": 216.4895, "MEAN_ANOMALY": 140.98, "EPHEMERIS_TYPE": 0, "CLASSIFICATION_TYPE": "U", "NORAD_CAT_ID": 32456, "ELEMENT_SET_NO": 999, "REV_AT_EPOCH": 60675, "BSTAR": 0.0016364212, "MEAN_MOTION_DOT": 1.184e-05, "MEAN_MOTION_DDOT": 0}, "tle": {"line1": "1 32456U 99025DBU 25351.15838580  .00001184  00000+0  16364-2 0  9994", "line2": "2 32456 103.6656 133.0133 0379497 216.4895 140.9800 13.35640436606758"}}, "geometry": {"type": "Point", "coordinates": [163.13433266282266, -63.59571062257594]}}, {"type": "Feature", "properties": {"norad_id": 32458, "name": "FENGYUN 1C DEB", "group": "fengyun-1c-debris", "lat": 72.55501052182817, "lon": -18.36184555648684, "alt_km": 671.8681999836117, "timestamp": "2025-12-17T17:50:19.537424+00:00", "meta": {"OBJECT_NAME": "FENGYUN 1C DEB", "OBJECT_ID": "1999-025DBW", "EPOCH": "2025-12-17T07:38:45.791520", "MEAN_MOTION": 14.62340298, "ECCENTRICITY": 0.00400557, "INCLINATION": 99.0455, "RA_OF_ASC_NODE": 11.634, "ARG_OF_PERICENTER": 359.8936, "MEAN_ANOMALY": 0.2248, "EPHEMERIS_TYPE": 0, "CLASSIFICATION_TYPE": "U", "NORAD_CAT_ID": 32458, "ELEMENT_SET_NO": 999, "REV_AT_EPOCH": 67856, "BSTAR": 0.0011308111, "MEAN_MOTION_DOT": 5.724e-05, "MEAN_MOTION_DDOT": 0}, "tle": {"line1": "1 32458U 99025DBW 25351.31858555  .00005724  00000+0  11308-2 0  9995", "line2": "2 32458  99.0455  11.6340 0040055 359.8936   0.2248 14.62340298678565"}}, "geometry": {"type": "Point", "coordinates": [-18.36184555648684, 72.55501052182817]}}, {"type": "Feature", "properties": {"norad_id": 32459, "name": "FENGYUN 1C DEB", "group": "fengyun-1c-debris", "lat": 28.242097407710283, "lon": -169.65397451818257, "alt_km": 604.4104033483563, "timestamp": "2025-12-17T17:50:19.537434+00:00", "meta": {"OBJECT_NAME": "FENGYUN 1C DEB", "OBJECT_ID": "1999-025DBX", "EPOCH": "2025-12-17T07:09:04.223520", "MEAN_MOTION": 14.42827235, "ECCENTRICITY": 0.02134721, "INCLINATION": 98.302, "RA_OF_ASC_NODE": 5.4136, "ARG_OF_PERICENTER": 172.547, "MEAN_ANOMALY": 187.8981, "EPHEMERIS_TYPE": 0, "CLASSIFICATION_TYPE": "U", "NORAD_CAT_ID": 32459, "ELEMENT_SET_NO": 999, "REV_AT_EPOCH": 94616, "BSTAR": 0.00037335611, "MEAN_MOTION_DOT": 1.589e-05, "MEAN_MOTION_DDOT": 0}, "tle": {"line1": "1 32459U 99025DBX 25351.29796555  .00001589  00000+0  37336-3 0  9999", "line2": "2 32459  98.3020   5.4136 0213472 172.5470 187.8981 14.42827235946167"}}, "geometry": {"type": "Point", "coordinates": [-169.65397451818257, 28.242097407710283]}}, {"type": "Feature", "properties": {"norad_id": 32460, "name": "FENGYUN 1C DEB", "group": "fengyun-1c-debris", "lat": -42.04740352833853, "lon": 143.53559252701075, "alt_km": 1056.4658661396315, "timestamp": "2025-12-17T17:50:19.537444+00:00", "meta": {"OBJECT_NAME": "FENGYUN 1C DEB", "OBJECT_ID": "1999-025DBY", "EPOCH": "2025-12-16T16:07:35.360256", "MEAN_MOTION": 13.89589165, "ECCENTRICITY": 0.01851829, "INCLINATION": 98.0198, "RA_OF_ASC_NODE": 135.3065, "ARG_OF_PERICENTER": 113.3101, "MEAN_ANOMALY": 248.7668, "EPHEMERIS_TYPE": 0, "CLASSIFICATION_TYPE": "U", "NORAD_CAT_ID": 32460, "ELEMENT_SET_NO": 999, "REV_AT_EPOCH": 65308, "BSTAR": 0.0008481014, "MEAN_MOTION_DOT": 1.158e-05, "MEAN_MOTION_DDOT": 0}, "tle": {"line1": "1 32460U 99025DBY 25350.67193704  .00001158  00000+0  84810-3 0  9990", "line2": "2 32460  98.0198 135.3065 0185182 113.3101 248.7668 13.89589165653088"}}, "geometry": {"type": "Point", "coordinates": [143.53559252701075, -42.04740352833853]}}]}